SCS-01 D                
1 63985U 25100D   26068.75607686  .00032471  00000+0  10528-2 0  9990
2 63985  97.3730 145.4097 0006346 266.2302  93.8214 15.31902149 45621
STARLINK-34289          
1 64225U 25117Y   26068.35145750  .00018785  00000+0  64477-3 0  9996
2 64225  53.1597  41.1902 0001118  88.7771 271.3357 15.30200079 44505
